96P/Machholz,e,57.5872,93.9629,14.7360,3.031018,0.1867761,0.96169296,141.3418,02/26.0/2025,2000,g 13.0,4.8
# From MPC106348
96P-B/Machholz,e,57.5027,14.6249,93.9967,3.030005,0.1868697,0.96172599,141.4293,02/26.0/2025,2000,g 13.0,4.8
# From MPC103849
96P-C/Machholz,e,58.5311,94.3495,15.5380,3.011920,0.1885553,0.95889850,359.8715,07/14.0/2012,2000,g  9.0,4.0
# From MPEC 2024-GJ3
97P/Metcalf-Brewington,e,17.9409,184.0770,230.1781,4.769225,0.0946308,0.46007696,104.6565,02/26.0/2025,2000,g  5.5,6.0
# From MPEC 2021-W31
98P/Takamizawa,e,10.6131,114.5486,157.7059,3.784658,0.1338641,0.56488840,202.6275,02/26.0/2025,2000,g  9.0,8.0
# From MPEC 2024-R10
99P/Kowal,e,4.3391,28.0729,174.5495,6.094201,0.0655132,0.22866156,69.0446,02/26.0/2025,2000,g  4.5,6.0
# From MPEC 2023-OA6
100P/Hartley,e,25.5673,37.6858,181.9381,3.430398,0.1551270,0.41138254,144.3734,02/26.0/2025,2000,g  9.0,8.0
# From MPEC 2024-R10
101P/Chernykh,e,5.0486,116.1292,277.9673,5.816614,0.0702585,0.59579260,131.4347,02/26.0/2025,2000,g 10.0,4.8
# From MPC105241
101P-B/Chernykh,e,5.0502,278.5104,115.5893,5.832154,0.0699779,0.59600343,129.6663,02/26.0/2025,2000,g  9.0,4.0
# From MPEC 2022-C56
102P/Shoemaker,e,25.8571,339.3999,20.6795,3.819780,0.1320221,0.45612968,197.5269,02/26.0/2025,2000,g  6.5,8.0
# From MPEC 2025-CE3
103P/Hartley,e,13.6093,219.7537,181.3236,3.475418,0.1521225,0.69358967,76.4465,02/26.0/2025,2000,g  8.5,8.0
# From MPEC 2023-G31
104P/Kowal,e,5.7016,207.1925,227.2903,3.208660,0.1714820,0.66593752,195.6029,02/26.0/2025,2000,g 16.0,4.0
# From MPEC 2024-F34
105P/SingerBrewster,e,9.1674,192.3964,46.3316,3.472863,0.1522904,0.40910564,5.2151,02/26.0/2025,2000,g 11.5,6.0
# From MPEC 2024-R10
106P/Schuster,e,19.5364,48.8650,353.7944,3.768022,0.1347516,0.59365304,173.4036,02/26.0/2025,2000,g 14.0,4.8
# From MPEC 2015-M77
107P/Wilson-Harrington,e,2.7986,266.7274,95.5223,2.625852,0.2316320,0.63105172,212.3215,02/26.0/2025,2000,g  9.0,4.0
# From MPEC 2022-P82
108P/Ciffreo,e,11.4339,50.3005,354.5287,3.743525,0.1360764,0.55581271,172.0694,02/26.0/2025,2000,g  8.0,12.0
# From  105, 420
109P/Swift-Tuttle,e,113.1730,139.6610,153.2711,26.20797,0.0073461,0.96280168,86.3531,02/26.0/2025,2000,g  4.0,6.0
# From MPEC 2023-KD6
110P/Hartley,e,11.7111,287.4823,167.5466,3.603646,0.1440757,0.31921725,176.5814,02/26.0/2025,2000,g  1.0,12.0
# From MPC 75718
111P/Helin-Roman-Crockett,e,4.2262,89.8100,1.3836,4.152745,0.1164665,0.10720788,156.9460,02/26.0/2025,2000,g  5.0,8.0
# From MPEC 2021-S45
112P/Urata-Niijima,e,24.2039,31.8190,21.5414,3.522652,0.1490732,0.59087199,274.6159,02/26.0/2025,2000,g 14.0,6.0
# From MPEC 2024-JU4
113P/Spitaler,e,5.2875,306.6266,115.7193,3.695693,0.1387268,0.41978043,138.7491,02/26.0/2025,2000,g 13.5,4.0
# From MPEC 2023-A50
114P/Wiseman-Skiff,e,18.3044,271.0275,172.8001,3.540316,0.1479589,0.55613843,276.2655,02/26.0/2025,2000,g 11.5,6.0
# From MPEC 2023-J29
115P/Maury,e,11.6784,176.0012,120.9196,4.271608,0.1116393,0.51762509,186.9990,02/26.0/2025,2000,g 10.5,6.0
# From MPEC 2024-RQ6
116P/Wild,e,3.6043,20.9612,173.1645,3.486363,0.1514067,0.37056595,144.6455,02/26.0/2025,2000,g  2.5,10.0
# From MPEC 2025-A40
117P/Helin-Roman-Alu,e,8.6912,58.8286,224.4611,4.111719,0.1182140,0.25395680,113.4105,02/26.0/2025,2000,g  2.5,8.0
# From MPEC 2024-MB8
118P/Shoemaker-Levy,e,10.0911,142.0603,314.9352,3.348800,0.1608312,0.45382621,132.5753,02/26.0/2025,2000,g 12.0,4.0
# From MPEC 2024-R10
119P/Parker-Hartley,e,7.3927,104.5440,322.2527,3.808840,0.1325913,0.38821543,123.1181,02/26.0/2025,2000,g  3.5,8.0
# From MPEC 2022-CN4
120P/Mueller,e,8.4825,358.7106,36.7743,3.969462,0.1246254,0.37431460,173.2633,02/26.0/2025,2000,g 12.0,4.0
# From MPEC 2025-A40
121P/Shoemaker-Holt,e,20.1621,94.1051,11.9123,4.588523,0.1002755,0.18671270,60.8288,02/26.0/2025,2000,g  6.5,8.0
# From MPC 75718
122P/de Vico,e,86.0444,79.7448,13.0007,17.63229,0.0133119,0.96257329,143.0121,02/26.0/2025,2000,g  7.5,5.2
# From MPEC 2021-F20
123P/West-Hartley,e,15.2805,45.9005,103.9733,3.882986,0.1288117,0.44448027,286.1557,02/26.0/2025,2000,g 12.2,4.0
# From MPEC 2024-UQ8
124P/Mrkos,e,31.4101,0.0083,185.1249,3.376204,0.1588770,0.48644796,283.3174,02/26.0/2025,2000,g 13.5,2.8
# From MPEC 2024-UA9
125P/Spacewatch,e,9.9858,153.1495,87.1159,3.128042,0.1781538,0.51200035,63.3784,02/26.0/2025,2000,g 13.0,6.0
# From MPEC 2024-JU4
126P/IRAS,e,45.8709,357.8582,356.5683,5.629168,0.0737968,0.69611600,44.4160,02/26.0/2025,2000,g  6.0,8.0
# From MPEC 2024-R10
127P/Holt-Olmstead,e,14.2969,13.6154,6.3393,3.454061,0.1535356,0.35888733,142.9139,02/26.0/2025,2000,g 11.0,6.0
# From MPC 89014
128P/Shoemaker-Holt,e,4.3707,214.3258,210.4677,4.482923,0.1038394,0.32241258,307.4914,02/26.0/2025,2000,g  8.5,4.0
# From MPEC 2024-R10
129P/Shoemaker-Levy,e,3.4421,184.8498,307.7878,4.293507,0.1107862,0.08589732,90.4233,02/26.0/2025,2000,g 11.0,4.0
# From MPEC 2025-D44
130P/McNaught-Hughes,e,6.0629,70.1806,246.2076,3.384167,0.1583166,0.46107604,50.1780,02/26.0/2025,2000,g 10.0,6.0
# From MPEC 2025-A40
131P/Mueller,e,7.3617,214.1403,179.2281,3.675278,0.1398842,0.34481596,310.3996,02/26.0/2025,2000,g 11.0,4.0
# From MPEC 2024-BE0
132P/Helin-Roman-Alu,e,5.3786,173.9839,216.5001,3.892007,0.1283641,0.56417874,154.1537,02/26.0/2025,2000,g 11.0,6.0
# From MPC 94676
133P/Elst-Pizarro,e,1.3899,160.1003,131.8761,3.163190,0.1751927,0.15570914,51.1324,02/26.0/2025,2000,g 15.4,2.0
# From MPC 89012
134P/Kowal-Vavrova,e,4.3335,201.9975,18.6798,6.271953,0.0627480,0.58538680,248.4226,02/26.0/2025,2000,g 11.5,4.0
# From MPEC 2024-C04
135P/Shoemaker-Levy,e,6.0634,213.0200,22.3910,3.801320,0.1329849,0.29362992,140.4984,02/26.0/2025,2000,g  7.0,8.0
# From MPEC 2025-CE3
136P/Mueller,e,9.4275,137.4228,225.2972,4.185088,0.1151191,0.29311076,6.1748,02/26.0/2025,2000,g 11.0,4.0
# From MPEC 2023-J29
137P/Shoemaker-Levy,e,4.8603,232.9250,141.2253,4.523309,0.1024518,0.57311795,232.0219,02/26.0/2025,2000,g 11.0,4.0
# From MPEC 2016-U66
138P/Shoemaker-Levy,e,10.0994,309.2725,95.6819,3.617445,0.1432522,0.53159065,303.9484,02/26.0/2025,2000,g 15.0,6.0
# From MPEC 2020-HN5
139P/Vaisala-Oterma,e,2.3376,242.1833,165.9556,4.514051,0.1027672,0.24836070,269.9106,02/26.0/2025,2000,g  9.5,4.0
# From MPEC 2015-E14
140P/Bowell-Skiff,e,3.7101,343.3788,172.1721,6.411603,0.0607092,0.69541304,213.5313,02/26.0/2025,2000,g 11.5,6.0
# From MPEC 2024-R10
141P/Machholz,e,13.9628,241.7765,153.6449,3.057098,0.1843912,0.73594009,282.3808,02/26.0/2025,2000,g 12.0,12.0
# From MPEC 2015-KD9
141P-A/Machholz,e,13.9416,153.5113,241.9221,3.057310,0.1843720,0.73595829,282.3216,02/26.0/2025,2000,g 12.0,12.0
# From MPC 24216
141P-B/Machholz,e,13.9855,153.5873,241.8112,3.055683,0.1845193,0.73571814,283.7322,02/26.0/2025,2000,g  9.0,4.0
# From MPC 37026
141P-D/Machholz,e,13.8334,153.2375,242.1704,3.065816,0.1836052,0.73690636,278.0096,02/26.0/2025,2000,g  9.0,4.0
# From MPEC 2015-R12
141P-E/Machholz,e,12.8152,246.1856,149.2667,3.012914,0.1884620,0.75023267,359.9529,09/19.0/1994,2000,g  9.0,4.0
# From MPEC 2015-R12
141P-F/Machholz,e,12.7898,246.1881,149.2374,3.010224,0.1887147,0.75000946,359.9630,09/19.0/1994,2000,g  9.0,4.0
# From MPEC 2015-R12
141P-G/Machholz,e,12.8259,246.3146,149.0784,3.005818,0.1891298,0.74964304,359.9802,09/19.0/1994,2000,g  9.0,4.0
# From MPC 95735
141P-H/Machholz,e,12.8431,246.0900,149.4500,3.008012,0.1889230,0.74682218,359.9270,08/24.0/2015,2000,g 18.5,4.0
# From MPEC 2022-SU8
141P-I/Machholz,e,13.9415,153.4660,241.9320,3.047777,0.1852376,0.73518565,283.7589,02/26.0/2025,2000,g 17.5,4.0
# From MPEC 2024-C04
142P/Ge-Wang,e,12.2458,175.9571,174.0742,5.003459,0.0880640,0.49607639,122.0896,02/26.0/2025,2000,g  8.5,6.0
# From MPEC 2025-A40
143P/Kowal-Mrkos,e,5.5418,242.8700,304.5666,4.775277,0.0944509,0.38885552,297.0829,02/26.0/2025,2000,g 13.5,2.0
# From MPEC 2024-YC7
144P/Kushida,e,3.9320,242.9239,216.3497,3.833187,0.1313301,0.63497601,52.1627,02/26.0/2025,2000,g  8.5,8.0
# From MPC108598
145P/Shoemaker-Levy,e,11.2765,26.7979,10.3701,4.131012,0.1173868,0.54252156,320.1020,02/26.0/2025,2000,g 13.5,4.0
# From MPEC 2025-CE3
146P/Shoemaker-LINEAR,e,23.1199,53.3694,317.0661,4.027224,0.1219538,0.64758202,24.9476,02/26.0/2025,2000,g 15.0,4.0
# From MPEC 2024-UQ8
147P/Kushida-Muramatsu,e,2.3115,91.6670,348.5924,4.009766,0.1227511,0.21187813,54.8127,02/26.0/2025,2000,g 14.0,4.0
# From MPEC 2024-JU4
148P/Anderson-LINEAR,e,3.6590,89.1951,8.0731,3.620059,0.1430970,0.55039792,141.3513,02/26.0/2025,2000,g 16.0,2.0
# From MPEC 2023-J29
149P/Mueller,e,34.2327,143.7811,30.2769,4.128424,0.1174973,0.32440127,282.5995,02/26.0/2025,2000,g  8.0,8.0
# From MPEC 2024-NE4
150P/LONEOS,e,18.5486,272.0557,246.1207,3.871601,0.1293803,0.54916529,45.3477,02/26.0/2025,2000,g 13.5,4.0
# From MPEC 2022-K19
151P/Helin,e,4.7258,143.1310,216.1582,5.765700,0.0711912,0.57271416,243.6950,02/26.0/2025,2000,g 10.0,6.0
# From MPEC 2024-YC7
152P/Helin-Lawrence,e,9.8795,91.7773,164.4478,4.485476,0.1037508,0.30710171,118.1916,02/26.0/2025,2000,g 11.5,4.0
# From MPC 46101
153P/Ikeya-Zhang,e,28.4944,93.7975,34.2335,50.44062,0.0027513,0.99012856,0.0000,03/10.7219/2002,2000,g  9.0,4.0
# From MPEC 2025-D44
154P/Brewington,e,17.6362,342.9985,47.9450,4.797626,0.0937917,0.67635903,24.1752,02/26.0/2025,2000,g  2.5,12.0
# From MPEC 2022-YN2
155P/Shoemaker,e,6.4106,97.1568,14.5251,6.571459,0.0585075,0.72763531,112.7955,02/26.0/2025,2000,g 10.0,4.8
# From MPEC 2023-J29
156P/Russell-LINEAR,e,17.2633,35.3375,0.5238,3.462573,0.1529698,0.61495048,238.6330,02/26.0/2025,2000,g 15.5,2.0
# From MPEC 2024-D33
157P/Tritton,e,12.4239,287.4998,155.1677,3.547759,0.1474935,0.55684720,132.7249,02/26.0/2025,2000,g 10.0,4.0
# From MPEC 2022-VC5
157P-B/Tritton,e,12.4249,153.8882,287.1951,3.102638,0.1803463,0.49993481,162.6066,02/26.0/2025,2000,g 15.7,4.0
# From MPEC 2025-CE3
158P/Kowal-LINEAR,e,7.4135,124.7501,226.6023,5.658467,0.0732244,0.11801605,67.9820,02/26.0/2025,2000,g  9.0,4.0
# From MPEC 2024-DC6
159P/LONEOS,e,23.4863,54.9392,4.7129,5.854601,0.0695758,0.38266833,171.7012,02/26.0/2025,2000,g 10.0,4.0
# From MPEC 2022-K19
